OSCAR 7 (AO-7)          
1 07530U 74089B   26203.01389822 -.00000046  00000+0  31002-5 0  9990
2 07530 101.9908 216.6236 0012617  65.7709 352.5322 12.53698634364880
PHASE 3B (AO-10)        
1 14129U 83058B   26202.35803166  .00000044  00000+0  00000+0 0  9991
2 14129  25.9422 213.9384 5999428 125.0554 306.6315  2.05869545296196
UOSAT 2 (UO-11)         
1 14781U 84021B   26203.25715222  .00001166  00000+0  12393-3 0  9999
2 14781  97.8082 168.4468 0009118  71.8134 288.4076 14.90861576262357
LUSAT (LO-19)           
1 20442U 90005G   26202.99643578  .00000080  00000+0  45129-4 0  9991
2 20442  98.8846 225.7599 0012669 103.1689 257.0909 14.34132161907383
EYESAT A (AO-27)        
1 22825U 93061C   26203.17144757  .00000055  00000+0  37818-4 0  9997
2 22825  98.6862 270.5690 0008356   5.9572 354.1708 14.30950387712007
ITAMSAT (IO-26)         
1 22826U 93061D   26203.14041631  .00000045  00000+0  33907-4 0  9996
2 22826  98.6809 270.4591 0008532 348.6901  11.4089 14.31378090712312
RADIO ROSTO (RS15)      
1 23439U 94085A   26203.23685821 -.00000038  00000+0  12289-3 0  9991
2 23439  64.8140 246.5321 0157185 357.4121   2.5975 11.27583643299850
JAS-2 (FO-29)           
1 24278U 96046B   26203.13337786 -.00000047  00000+0 -11017-4 0  9995
2 24278  98.5216  47.2150 0350024   5.9531 354.5608 13.53275838477893
TECHSAT 1B (GO-32)      
1 25397U 98043D   26202.41314108  .00000032  00000+0  34135-4 0  9998
2 25397  99.0091 196.0385 0002316 105.0328 255.1107 14.24434140456204
ISS (ZARYA)             
1 25544U 98067A   26203.15321183  .00008859  00000+0  16818-3 0  9993
2 25544  51.6313 127.0562 0006883 324.3803  35.6725 15.49090344577176
PCSAT (NO-44)           
1 26931U 01043C   26203.29140487  .00000112  00000+0  72622-4 0  9993
2 26931  67.0503 153.4757 0005853 267.2123  92.8309 14.31967057295471
SAUDISAT 1C (SO-50)     
1 27607U 02058C   26203.15188800  .00000775  00000+0  10888-3 0  9997
2 27607  64.5522  20.7986 0074307 256.0137 103.2699 14.83108446269641
CUTE-1 (CO-55)          
1 27844U 03031E   26203.02043421  .00000248  00000+0  12599-3 0  9993
2 27844  98.6746 211.1424 0010865  85.1990 275.0430 14.24354732196635
CUBESAT XI-IV (CO-57)   
1 27848U 03031J   26202.46414799  .00000171  00000+0  94004-4 0  9991
2 27848  98.6777 210.2780 0010700 103.0346 257.2027 14.23636890196250
MOZHAETS 4 (RS22)       
1 27939U 03042A   26203.32729936  .00000530  00000+0  89811-4 0  9991
2 27939  98.3487  28.6814 0011767 151.1120 310.3090 14.73521633220727
CUBESAT XI-V            
1 28895U 05043F   26202.37477685  .00000932  00000+0  15414-3 0  9994
2 28895  98.3024 358.7230 0015344  97.2573 263.0378 14.72712744106788
CUTE-1.7+APD II (CO-65) 
1 32785U 08021C   26203.24657463  .00004754  00000+0  29868-3 0  9991
2 32785  97.8297 185.4067 0006926 269.3303  90.7131 15.09741550990487
SEEDS II (CO-66)        
1 32791U 08021J   26202.46224214  .00017397  00000+0  53391-3 0  9990
2 32791  97.7536 202.0274 0003743 143.8472 216.3023 15.33809298992548
YUBILEINY (RS30)        
1 32953U 08025A   26203.26738631  .00000093  00000+0  60139-3 0  9999
2 32953  82.5070 333.6185 0018797 232.7664 127.1702 12.43181276824051
KKS-1 (KISEKI)          
1 33499U 09002H   26203.20312546  .00000955  00000+0  12371-3 0  9990
2 33499  98.1169 126.1998 0007995 166.1155 194.0280 14.83201050941388
SWISSCUBE               
1 35932U 09051B   26202.23982576  .00000659  00000+0  13969-3 0  9991
2 35932  98.4000 110.7173 0008063 103.0186 257.1915 14.62538248894139
BEESAT-1                
1 35933U 09051C   26203.22540006  .00000617  00000+0  13357-3 0  9995
2 35933  98.3928 111.2816 0006443 111.6520 248.5367 14.61769634894303
ITUPSAT1                
1 35935U 09051E   26202.97297986  .00000620  00000+0  13787-3 0  9995
2 35935  98.4011 110.1798 0008455 124.3905 235.8095 14.60485984893813
XIWANG-1 (HOPE-1)       
1 36122U 09072B   26203.27947068 -.00000032  00000+0  32014-4 0  9997
2 36122 100.4043 156.5539 0007755 148.9914 211.1659 13.16440822797629
O/OREOS (USA 219)       
1 37224U 10062C   26202.41607643  .00001391  00000+0  13661-3 0  9993
2 37224  71.9703   2.7940 0014417 353.1172   6.9798 14.93867011121753
JUGNU                   
1 37839U 11058B   26202.95852093  .00000405  00000+0  72180-4 0  9998
2 37839  19.9606  97.1717 0018649 100.7101   0.1064 14.13785005763958
SRMSAT                  
1 37841U 11058D   26202.37626957  .00000342  00000+0  41913-4 0  9995
2 37841  19.9702 212.5309 0011588 219.4908 265.6668 14.11581900762656
STRAND-1                
1 39090U 13009E   26203.00591478  .00000243  00000+0  95889-4 0  9992
2 39090  98.3941  22.3864 0009700 122.8343 237.3779 14.37181893702069
ZACUBE-1 (TSHEPISOSAT)  
1 39417U 13066B   26201.86646474  .00001847  00000+0  14537-3 0  9998
2 39417  97.7999 164.3670 0044079 137.0238 223.4444 15.01347026685787
GOMX-1                  
1 39430U 13066Q   26203.25243366  .00000536  00000+0  87729-4 0  9999
2 39430  97.6470  41.5023 0127658 325.4770  33.8194 14.69551236675060
